GLOBALSTAR M094 [+]     
1 39074U 13005C   24042.52301660 -.00000104  00000+0 -16495-5 0  9993
2 39074  51.9932 239.0898 0000719  82.1780 277.9168 12.62262931510286
GLOBALSTAR M096 [+]     
1 39075U 13005D   24042.14045860 -.00000063  00000+0  22476-3 0  9996
2 39075  52.0075 288.3879 0000444  58.6518 301.4392 12.62272501509155
GLOBALSTAR M078 [+]     
1 39076U 13005E   24042.27265505 -.00000101  00000+0  18198-4 0  9991
2 39076  51.9896  13.1622 0001055 149.2834 210.8094 12.62259676507790
GLOBALSTAR M095 [+]     
1 39077U 13005F   24042.29860400 -.00000104  00000+0  61243-6 0  9993
2 39077  51.9825  10.5213 0000492 179.3238 180.7629 12.62263018507655
GLOBALSTAR M087 [+]     
1 52888U 22064A   24042.07958636 -.00000058  00000+0  13464-3 0  9995
2 52888  51.9761 291.5993 0010126  44.1321 316.0386 13.37564901 80515
